COSMOS 2426 (717)       
1 29671U 06062B   19142.40259068 -.00000014  00000-0  10000-3 0  9990
2 29671  65.1338 281.1629 0018130 161.1403  81.6281  2.13102882 96548
COSMOS 2433 (720)       
1 32275U 07052A   19141.74173263 -.00000070  00000-0  10000-3 0  9994
2 32275  65.8418  42.0205 0002791 292.4042 139.8600  2.13104354 90041
COSMOS 2432 (719)       
1 32276U 07052B   19141.89422703 -.00000071  00000-0  10000-3 0  9998
2 32276  65.8512  42.0988 0012222 335.1578 165.2564  2.13103888 90047
COSMOS 2434 (721)       
1 32393U 07065A   19141.42887625 -.00000020  00000-0  00000+0 0  9998
2 32393  64.7354 279.9066 0005226 101.5354 338.1790  2.13102978 88745
COSMOS 2436 (723)       
1 32395U 07065C   19142.24355108 -.00000015  00000-0  10000-3 0  9996
2 32395  64.7441 279.9327 0015872   6.2111  30.6518  2.13104389 88698
COSMOS 2456 (730)       
1 36111U 09070A   19142.17301686  .00000044  00000-0  00000+0 0  9994
2 36111  64.1981 159.5147 0006357 302.6541 160.9482  2.13102898 73427
COSMOS 2457 (733)       
1 36112U 09070B   19142.38731367  .00000044  00000-0  00000+0 0  9991
2 36112  64.1805 159.4110 0005279 194.5929 198.6172  2.13101558 73439
COSMOS 2459 (731)       
1 36400U 10007A   19141.98175956 -.00000072  00000-0  10000-3 0  9991
2 36400  65.7473  41.0354 0027745 351.7931 120.7976  2.13102212 71776
COSMOS 2461 (735)       
1 36401U 10007B   19141.62698752 -.00000071  00000-0  10000-3 0  9996
2 36401  65.7392  41.0189 0007994  55.3696  55.5844  2.13102117 71764
COSMOS 2460 (732)       
1 36402U 10007C   19142.53343157 -.00000073  00000-0  10000-3 0  9996
2 36402  65.7295  40.9534 0001744   3.5131 122.7762  2.13101510 71789
COSMOS 2464 (736)       
1 37139U 10041C   19142.20698206 -.00000016  00000-0  00000+0 0  9996
2 37139  64.3356 279.5146 0025229  15.1727 167.9488  2.13100619 67840
COSMOS 2474 (742)       
1 37829U 11055A   19142.12884204  .00000044  00000-0  00000+0 0  9994
2 37829  64.5205 160.3768 0010898 252.8343  33.4454  2.13101886 59419
COSMOS 2476 (744)       
1 37867U 11064A   19141.65629573  .00000045  00000-0  00000-0 0  9991
2 37867  64.5002 160.4463 0020787 243.9944  85.9043  2.13102012 58759
COSMOS 2477 (745)       
1 37868U 11064B   19141.79973654  .00000044  00000-0  00000+0 0  9997
2 37868  64.5088 160.4939 0018492 245.3968  13.2385  2.13101789 58713
COSMOS 2475 (743)       
1 37869U 11064C   19142.42337498  .00000044  00000-0  00000+0 0  9999
2 37869  64.5157 160.4677 0023051 266.1995  67.9160  2.13102032 58739
COSMOS 2485 (747)       
1 39155U 13019A   19142.53470091  .00000044  00000-0  00000+0 0  9990
2 39155  64.6695 160.5996 0021161 239.5221  88.9888  2.13101935 47243
COSMOS 2492 (754)       
1 39620U 14012A   19141.69528041 -.00000072  00000-0  10000-3 0  9993
2 39620  65.6198  40.8180 0015406 330.6224 108.9835  2.13103326 40182
COSMOS 2500 (755)       
1 40001U 14032A   19141.90685477 -.00000072  00000-0  00000-0 0  9997
2 40001  65.5602  40.7544 0004565 214.4159 248.9881  2.13102714 38407
COSMOS 2501 (702K)      
1 40315U 14075A   19142.03677834 -.00000018  00000-0  00000+0 0  9994
2 40315  64.0592 280.6127 0015803 205.9928 155.2852  2.13097697 34817
COSMOS 2514 (751)       
1 41330U 16008A   19141.82675715 -.00000072  00000-0  00000+0 0  9992
2 41330  65.3645  40.7280 0008300 223.7184 359.8728  2.13103210 25564
COSMOS 2516 (753)       
1 41554U 16032A   19142.21863466 -.00000016  00000-0  00000+0 0  9991
2 41554  64.2792 280.5659 0011413 212.0113 202.8181  2.13101674 23187
COSMOS 2522 (752)       
1 42939U 17055A   19142.36912962 -.00000015  00000-0  00000+0 0  9996
2 42939  64.5100 280.6259 0005970 240.2890 156.4859  2.13101805 12948
COSMOS 2527 (756)       
1 43508U 18053A   19142.19713277  .00000044  00000-0  00000+0 0  9998
2 43508  64.8341 160.3779 0009095 243.4544  52.5149  2.13102666  7224
COSMOS 2529 (757)       
1 43687U 18086A   19142.19867512 -.00000016  00000-0  00000+0 0  9994
2 43687  64.7238 280.6453 0008312 272.2104 309.5094  2.13101948  4249
